IRIDIUM 126             
1 42809U 17039G   24256.72012540  .00000094  00000+0  26608-4 0  9991
2 42809  86.3909 262.0914 0002119  88.1344 272.0094 14.34217303377879
IRIDIUM 124             
1 42810U 17039H   24255.59286169  .00001911  00000+0  56190-3 0  9994
2 42810  86.4548 199.3362 0002049  90.0219 270.1216 14.43291048382289
IRIDIUM 128             
1 42811U 17039J   24256.64108937  .00001539  00000+0  54235-3 0  9992
2 42811  86.3930 293.6754 0001964  94.2559 265.8861 14.34225543377889
IRIDIUM 121             
1 42812U 17039K   24256.73915319  .00000076  00000+0  19995-4 0  9993
2 42812  86.3908 262.1065 0002188  91.0554 269.0893 14.34217410377863
IRIDIUM 133             
1 42955U 17061A   24256.60304150  .00000116  00000+0  34229-4 0  9999
2 42955  86.3933 293.7935 0002255  91.1461 268.9993 14.34217189362673
IRIDIUM 100             
1 42956U 17061B   24256.59669796  .00000136  00000+0  41477-4 0  9993
2 42956  86.3931 293.7296 0002058  94.7918 265.3513 14.34218087362676
IRIDIUM 122             
1 42957U 17061C   24256.07660405  .00000167  00000+0  52682-4 0  9999
2 42957  86.3932 293.9458 0001959  91.4151 268.7270 14.34218615362609
IRIDIUM 129             
1 42958U 17061D   24256.52058602  .00000208  00000+0  67055-4 0  9996
2 42958  86.3932 293.8203 0002221  85.8540 274.2910 14.34218855362686
